GLOBALSTAR M035         
1 25851U 99037A   25084.49594659 -.00000048  00000+0  59305-3 0  9996
2 25851  51.9930 241.6053 0013762 202.2705 197.8160 11.04537170 87015
GLOBALSTAR M032         
1 25852U 99037B   25084.27859983 -.00000048  00000+0  59550-3 0  9999
2 25852  51.9945  73.0715 0011690  25.9955 334.1430 11.19063256125394
GLOBALSTAR M051         
1 25853U 99037C   25084.48012241 -.00000061  00000+0  26866-3 0  9990
2 25853  51.9778 242.8259 0001551  88.8345 271.2643 11.42205290122828
GLOBALSTAR M030         
1 25854U 99037D   25084.57809289 -.00000051  00000+0  49962-3 0  9998
2 25854  51.9887  54.0076 0003682 260.9750  99.0650 11.55100639140380
GLOBALSTAR M048         
1 25872U 99041A   25084.53142669 -.00000068  00000+0  43963-4 0  9995
2 25872  51.9355 174.5019 0013078  42.9249 330.8287 11.33855524115498
GLOBALSTAR M026         
1 25873U 99041B   25084.54928023 -.00000036  00000+0  10356-2 0  9996
2 25873  52.0063   0.3268 0001914 110.2267  61.4463 11.06832877139220
GLOBALSTAR M043         
1 25874U 99041C   25084.52248931 -.00000032  00000+0  10650-2 0  9991
2 25874  51.9391 278.8362 0013757 166.4769 218.3845 11.25692973113454
GLOBALSTAR M028         
1 25875U 99041D   25084.07256641 -.00000069  00000+0  20073-3 0  9990
2 25875  51.9616  83.8771 0063105 248.7854 110.6258 12.50580038179657
